{
    "links": {
        "self": "http://www.neowsapp.com/rest/v1/neo/3797894?api_key=iIulBulltgU6a56xZRHN4H3l9WmuAYTsLGpBGhQ2"
    },
    "id": "3797894",
    "neo_reference_id": "3797894",
    "name": "(2018 BY4)",
    "designation": "2018 BY4",
    "nasa_jpl_url": "http://ssd.jpl.nasa.gov/sbdb.cgi?sstr=3797894",
    "absolute_magnitude_h": 21.0,
    "estimated_diameter": {
        "kilometers": {
            "estimated_diameter_min": 0.1677084622,
            "estimated_diameter_max": 0.3750075218
        },
        "meters": {
            "estimated_diameter_min": 167.7084621628,
            "estimated_diameter_max": 375.0075217981
        },
        "miles": {
            "estimated_diameter_min": 0.1042091748,
            "estimated_diameter_max": 0.2330187988
        },
        "feet": {
            "estimated_diameter_min": 550.2246310023,
            "estimated_diameter_max": 1230.3396778159
        }
    },
    "is_potentially_hazardous_asteroid": false,
    "close_approach_data": [
        {
            "close_approach_date": "2017-08-03",
            "close_approach_date_full": "2017-Aug-03 07:16",
            "epoch_date_close_approach": 1501744560000,
            "relative_velocity": {
                "kilometers_per_second": "19.1202721956",
                "kilometers_per_hour": "68832.979904232",
                "miles_per_hour": "42770.1368743824"
            },
            "miss_distance": {
                "astronomical": "0.3514066312",
                "lunar": "136.6971795368",
                "kilometers": "52569683.531395544",
                "miles": "32665286.6369407472"
            },
            "orbiting_body": "Earth"
        }
    ],
    "orbital_data": {
        "orbit_id": "1",
        "orbit_determination_date": "2018-01-25 11:42:06",
        "first_observation_date": "2018-01-11",
        "last_observation_date": "2018-01-24",
        "data_arc_in_days": 13,
        "observations_used": 15,
        "orbit_uncertainty": "9",
        "minimum_orbit_intersection": ".238403",
        "jupiter_tisserand_invariant": "4.616",
        "epoch_osculation": "2458133.5",
        "eccentricity": ".5116702405604073",
        "semi_major_axis": "1.370094678247898",
        "inclination": "21.861736873683",
        "ascending_node_longitude": "291.0679557100298",
        "orbital_period": "585.7661834101921",
        "perihelion_distance": ".6690580046382624",
        "perihelion_argument": "38.97303592272438",
        "aphelion_distance": "2.071131351857534",
        "perihelion_time": "2457981.516313850916",
        "mean_anomaly": "93.40608687093807",
        "mean_motion": ".614579691002586",
        "equinox": "J2000",
        "orbit_class": {
            "orbit_class_type": "APO",
            "orbit_class_description": "Near-Earth asteroid orbits which cross the Earth’s orbit similar to that of 1862 Apollo",
            "orbit_class_range": "a (semi-major axis) > 1.0 AU; q (perihelion) < 1.017 AU"
        }
    },
    "is_sentry_object": false
}